SL-4 R/B                
1 39679U 14021B   25361.18150132  .00013185  00000+0  31179-3 0  9991
2 39679  51.6092 330.3918 0100612 198.3860 161.3476 15.37008912645112
ALOS-2                  
1 39766U 14029A   25360.87831637  .00001219  00000+0  17003-3 0  9992
2 39766  97.9215  95.5225 0001377  99.1810 260.9558 14.79473782626102
YAOGAN-29               
1 41038U 15069A   25361.32715392  .00000448  00000+0  62010-4 0  9994
2 41038  98.0209  24.5447 0001006 158.3757 201.7498 14.82898603545155
ASTRO-H (HITOMI)        
1 41337U 16012A   25360.97408140  .00004343  00000+0  25887-3 0  9993
2 41337  30.9993 105.5984 0009681 321.2405  38.7538 15.09446281541235
HXMT (HUIYAN)           
1 42758U 17034A   25361.28281354  .00006653  00000+0  34389-3 0  9990
2 42758  43.0144  58.9163 0031455 138.7267 221.5966 15.16408189471543
CZ-2C R/B               
1 43521U 18054D   25360.92739544  .00130770  00000+0  75452-3 0  9995
2 43521  35.1327  84.4735 0014269 284.6023  75.3129 15.77130839417290
SAOCOM 1A               
1 43641U 18076A   25361.11917803 -.00000567  00000+0 -64645-4 0  9995
2 43641  97.8846 185.3314 0001334  82.4101 277.7264 14.82144203390617
H-2A R/B                
1 43682U 18084L   25361.26944020  .00021177  00000+0  56348-3 0  9994
2 43682  98.8773 198.3662 0026400 275.3739  84.4490 15.37910723394632
SAOCOM 1B               
1 46265U 20059A   25361.28545407  .00000991  00000+0  13099-3 0  9994
2 46265  97.8843 184.5953 0001467  86.3023 273.8358 14.82154563288024
CSS (TIANHE)            
1 48274U 21035A   25361.25191925  .00019920  00000+0  24489-3 0  9997
2 48274  41.4675 288.5662 0008745 157.7703 202.3516 15.59750285266296
COSMOS 2550             
1 48865U 21056A   25360.55005821 -.00000144  00000+0  14442-5 0  9996
2 48865  67.1451 262.1617 0008182 269.8127  90.2090 15.33846232252248
CZ-2C R/B               
1 52794U 22058K   25361.19409432  .00033382  00000+0  58234-3 0  9996
2 52794  50.1920 329.7970 0044539 257.9622 101.6353 15.49236148198876
