CCSDS_OMM_VERS = 2.0
CREATION_DATE  = 
ORIGINATOR     = 

OBJECT_NAME    = SL-4 R/B
OBJECT_ID      = 2014-021B
CENTER_NAME    = EARTH
REF_FRAME      = TEME
TIME_SYSTEM    = UTC
MEAN_ELEMENT_THEORY = SGP/SGP4

EPOCH          = 2025-12-27T04:21:21.714048
MEAN_MOTION    = 15.37008912
ECCENTRICITY   = .01006129
INCLINATION    = 51.6092
RA_OF_ASC_NODE = 330.3918
ARG_OF_PERICENTER = 198.3860
MEAN_ANOMALY   = 161.3476

EPHEMERIS_TYPE = 0
CLASSIFICATION_TYPE = U
NORAD_CAT_ID   = 39679
ELEMENT_SET_NO = 999
REV_AT_EPOCH   = 64511
BSTAR          = .31178749E-3
MEAN_MOTION_DOT = .13185E-3
MEAN_MOTION_DDOT = 0

CCSDS_OMM_VERS = 2.0
CREATION_DATE  = 
ORIGINATOR     = 

OBJECT_NAME    = ALOS-2
OBJECT_ID      = 2014-029A
CENTER_NAME    = EARTH
REF_FRAME      = TEME
TIME_SYSTEM    = UTC
MEAN_ELEMENT_THEORY = SGP/SGP4

EPOCH          = 2025-12-26T21:04:46.534368
MEAN_MOTION    = 14.79473782
ECCENTRICITY   = .00013773
INCLINATION    = 97.9215
RA_OF_ASC_NODE = 95.5225
ARG_OF_PERICENTER = 99.1810
MEAN_ANOMALY   = 260.9558

EPHEMERIS_TYPE = 0
CLASSIFICATION_TYPE = U
NORAD_CAT_ID   = 39766
ELEMENT_SET_NO = 999
REV_AT_EPOCH   = 62610
BSTAR          = .17003388E-3
MEAN_MOTION_DOT = .1219E-4
MEAN_MOTION_DDOT = 0

CCSDS_OMM_VERS = 2.0
CREATION_DATE  = 
ORIGINATOR     = 

OBJECT_NAME    = YAOGAN-29
OBJECT_ID      = 2015-069A
CENTER_NAME    = EARTH
REF_FRAME      = TEME
TIME_SYSTEM    = UTC
MEAN_ELEMENT_THEORY = SGP/SGP4

EPOCH          = 2025-12-27T07:51:06.098688
MEAN_MOTION    = 14.82898603
ECCENTRICITY   = .00010065
INCLINATION    = 98.0209
RA_OF_ASC_NODE = 24.5447
ARG_OF_PERICENTER = 158.3757
MEAN_ANOMALY   = 201.7498

EPHEMERIS_TYPE = 0
CLASSIFICATION_TYPE = U
NORAD_CAT_ID   = 41038
ELEMENT_SET_NO = 999
REV_AT_EPOCH   = 54515
BSTAR          = .6200962E-4
MEAN_MOTION_DOT = .448E-5
MEAN_MOTION_DDOT = 0

CCSDS_OMM_VERS = 2.0
CREATION_DATE  = 
ORIGINATOR     = 

OBJECT_NAME    = ASTRO-H (HITOMI)
OBJECT_ID      = 2016-012A
CENTER_NAME    = EARTH
REF_FRAME      = TEME
TIME_SYSTEM    = UTC
MEAN_ELEMENT_THEORY = SGP/SGP4

EPOCH          = 2025-12-26T23:22:40.632960
MEAN_MOTION    = 15.09446281
ECCENTRICITY   = .0009681
INCLINATION    = 30.9993
RA_OF_ASC_NODE = 105.5984
ARG_OF_PERICENTER = 321.2405
MEAN_ANOMALY   = 38.7538

EPHEMERIS_TYPE = 0
CLASSIFICATION_TYPE = U
NORAD_CAT_ID   = 41337
ELEMENT_SET_NO = 999
REV_AT_EPOCH   = 54123
BSTAR          = .25887E-3
MEAN_MOTION_DOT = .4343E-4
MEAN_MOTION_DDOT = 0

CCSDS_OMM_VERS = 2.0
CREATION_DATE  = 
ORIGINATOR     = 

OBJECT_NAME    = HXMT (HUIYAN)
OBJECT_ID      = 2017-034A
CENTER_NAME    = EARTH
REF_FRAME      = TEME
TIME_SYSTEM    = UTC
MEAN_ELEMENT_THEORY = SGP/SGP4

EPOCH          = 2025-12-27T06:47:15.089856
MEAN_MOTION    = 15.16408189
ECCENTRICITY   = .0031455
INCLINATION    = 43.0144
RA_OF_ASC_NODE = 58.9163
ARG_OF_PERICENTER = 138.7267
MEAN_ANOMALY   = 221.5966

EPHEMERIS_TYPE = 0
CLASSIFICATION_TYPE = U
NORAD_CAT_ID   = 42758
ELEMENT_SET_NO = 999
REV_AT_EPOCH   = 47154
BSTAR          = .34389001E-3
MEAN_MOTION_DOT = .6653E-4
MEAN_MOTION_DDOT = 0

CCSDS_OMM_VERS = 2.0
CREATION_DATE  = 
ORIGINATOR     = 

OBJECT_NAME    = CZ-2C R/B
OBJECT_ID      = 2018-054D
CENTER_NAME    = EARTH
REF_FRAME      = TEME
TIME_SYSTEM    = UTC
MEAN_ELEMENT_THEORY = SGP/SGP4

EPOCH          = 2025-12-26T22:15:26.966016
MEAN_MOTION    = 15.77130839
ECCENTRICITY   = .0014269
INCLINATION    = 35.1327
RA_OF_ASC_NODE = 84.4735
ARG_OF_PERICENTER = 284.6023
MEAN_ANOMALY   = 75.3129

EPHEMERIS_TYPE = 0
CLASSIFICATION_TYPE = U
NORAD_CAT_ID   = 43521
ELEMENT_SET_NO = 999
REV_AT_EPOCH   = 41729
BSTAR          = .75452E-3
MEAN_MOTION_DOT = .13077E-2
MEAN_MOTION_DDOT = 0

CCSDS_OMM_VERS = 2.0
CREATION_DATE  = 
ORIGINATOR     = 

OBJECT_NAME    = SAOCOM 1A
OBJECT_ID      = 2018-076A
CENTER_NAME    = EARTH
REF_FRAME      = TEME
TIME_SYSTEM    = UTC
MEAN_ELEMENT_THEORY = SGP/SGP4

EPOCH          = 2025-12-27T02:51:36.981792
MEAN_MOTION    = 14.82144203
ECCENTRICITY   = .00013345
INCLINATION    = 97.8846
RA_OF_ASC_NODE = 185.3314
ARG_OF_PERICENTER = 82.4101
MEAN_ANOMALY   = 277.7264

EPHEMERIS_TYPE = 0
CLASSIFICATION_TYPE = U
NORAD_CAT_ID   = 43641
ELEMENT_SET_NO = 999
REV_AT_EPOCH   = 39061
BSTAR          = -.64644894E-4
MEAN_MOTION_DOT = -.567E-5
MEAN_MOTION_DDOT = 0

CCSDS_OMM_VERS = 2.0
CREATION_DATE  = 
ORIGINATOR     = 

OBJECT_NAME    = H-2A R/B
OBJECT_ID      = 2018-084L
CENTER_NAME    = EARTH
REF_FRAME      = TEME
TIME_SYSTEM    = UTC
MEAN_ELEMENT_THEORY = SGP/SGP4

EPOCH          = 2025-12-27T06:27:59.633280
MEAN_MOTION    = 15.37910723
ECCENTRICITY   = .00264007
INCLINATION    = 98.8773
RA_OF_ASC_NODE = 198.3662
ARG_OF_PERICENTER = 275.3739
MEAN_ANOMALY   = 84.4490

EPHEMERIS_TYPE = 0
CLASSIFICATION_TYPE = U
NORAD_CAT_ID   = 43682
ELEMENT_SET_NO = 999
REV_AT_EPOCH   = 39463
BSTAR          = .56348166E-3
MEAN_MOTION_DOT = .21177E-3
MEAN_MOTION_DDOT = 0

CCSDS_OMM_VERS = 2.0
CREATION_DATE  = 
ORIGINATOR     = 

OBJECT_NAME    = SAOCOM 1B
OBJECT_ID      = 2020-059A
CENTER_NAME    = EARTH
REF_FRAME      = TEME
TIME_SYSTEM    = UTC
MEAN_ELEMENT_THEORY = SGP/SGP4

EPOCH          = 2025-12-27T06:51:03.231648
MEAN_MOTION    = 14.82154563
ECCENTRICITY   = .00014673
INCLINATION    = 97.8843
RA_OF_ASC_NODE = 184.5953
ARG_OF_PERICENTER = 86.3023
MEAN_ANOMALY   = 273.8358

EPHEMERIS_TYPE = 0
CLASSIFICATION_TYPE = U
NORAD_CAT_ID   = 46265
ELEMENT_SET_NO = 999
REV_AT_EPOCH   = 28802
BSTAR          = .13099096E-3
MEAN_MOTION_DOT = .991E-5
MEAN_MOTION_DDOT = 0

CCSDS_OMM_VERS = 2.0
CREATION_DATE  = 
ORIGINATOR     = 

OBJECT_NAME    = CSS (TIANHE)
OBJECT_ID      = 2021-035A
CENTER_NAME    = EARTH
REF_FRAME      = TEME
TIME_SYSTEM    = UTC
MEAN_ELEMENT_THEORY = SGP/SGP4

EPOCH          = 2025-12-27T06:02:45.823200
MEAN_MOTION    = 15.59750285
ECCENTRICITY   = .0008745
INCLINATION    = 41.4675
RA_OF_ASC_NODE = 288.5662
ARG_OF_PERICENTER = 157.7703
MEAN_ANOMALY   = 202.3516

EPHEMERIS_TYPE = 0
CLASSIFICATION_TYPE = U
NORAD_CAT_ID   = 48274
ELEMENT_SET_NO = 999
REV_AT_EPOCH   = 26629
BSTAR          = .24488937E-3
MEAN_MOTION_DOT = .1992E-3
MEAN_MOTION_DDOT = 0

CCSDS_OMM_VERS = 2.0
CREATION_DATE  = 
ORIGINATOR     = 

OBJECT_NAME    = COSMOS 2550
OBJECT_ID      = 2021-056A
CENTER_NAME    = EARTH
REF_FRAME      = TEME
TIME_SYSTEM    = UTC
MEAN_ELEMENT_THEORY = SGP/SGP4

EPOCH          = 2025-12-26T13:12:05.029344
MEAN_MOTION    = 15.33846232
ECCENTRICITY   = .0008182
INCLINATION    = 67.1451
RA_OF_ASC_NODE = 262.1617
ARG_OF_PERICENTER = 269.8127
MEAN_ANOMALY   = 90.2090

EPHEMERIS_TYPE = 0
CLASSIFICATION_TYPE = U
NORAD_CAT_ID   = 48865
ELEMENT_SET_NO = 999
REV_AT_EPOCH   = 25224
BSTAR          = .14442E-5
MEAN_MOTION_DOT = -.144E-5
MEAN_MOTION_DDOT = 0

CCSDS_OMM_VERS = 2.0
CREATION_DATE  = 
ORIGINATOR     = 

OBJECT_NAME    = CZ-2C R/B
OBJECT_ID      = 2022-058K
CENTER_NAME    = EARTH
REF_FRAME      = TEME
TIME_SYSTEM    = UTC
MEAN_ELEMENT_THEORY = SGP/SGP4

EPOCH          = 2025-12-27T04:39:29.749248
MEAN_MOTION    = 15.49236148
ECCENTRICITY   = .00445394
INCLINATION    = 50.1920
RA_OF_ASC_NODE = 329.7970
ARG_OF_PERICENTER = 257.9622
MEAN_ANOMALY   = 101.6353

EPHEMERIS_TYPE = 0
CLASSIFICATION_TYPE = U
NORAD_CAT_ID   = 52794
ELEMENT_SET_NO = 999
REV_AT_EPOCH   = 19887
BSTAR          = .58233512E-3
MEAN_MOTION_DOT = .33382E-3
MEAN_MOTION_DDOT = 0

